ONEWEB-0120             
1 47266U 20100J   26193.92089713 -.00000270  00000+0 -78711-3 0  9995
2 47266  87.8957 345.5524 0002050  97.1060 263.0302 13.12442810268108
ONEWEB-0121             
1 47267U 20100K   26193.90889636 -.00000401  00000+0 -11493-2 0  9995
2 47267  87.8955 345.5448 0001441  91.4184 268.7109 13.12442248268011
ONEWEB-0122             
1 47268U 20100L   26193.90296559 -.00000299  00000+0 -86708-3 0  9999
2 47268  87.8968 345.5490 0001914  98.2727 261.8619 13.12441227267921
ONEWEB-0123             
1 47269U 20100M   26193.89873391 -.00000211  00000+0 -62066-3 0  9998
2 47269  87.8973 345.5526 0001905  95.7197 264.4149 13.12441798268067
ONEWEB-0124             
1 47270U 20100N   26193.88857389  .00000159  00000+0  40537-3 0  9996
2 47270  87.8947 345.5599 0001642  91.6823 268.4494 13.12441614267949
ONEWEB-0125             
1 47271U 20100P   26193.86655197  .00000372  00000+0  99967-3 0  9996
2 47271  87.8969 345.5496 0001617  88.2275 271.9039 13.12443267268003
ONEWEB-0126             
1 47272U 20100Q   26193.88702963  .00000215  00000+0  56295-3 0  9996
2 47272  87.8958 345.5594 0001932  93.3599 266.7751 13.12441524268071
ONEWEB-0127             
1 47273U 20100R   26193.92923312 -.00000004  00000+0 -45812-4 0  9997
2 47273  87.8957 345.5490 0002007  97.7383 262.3973 13.12444040268107
ONEWEB-0128             
1 47274U 20100S   26193.87498288  .00005660  00000+0  15679-1 0  9997
2 47274  87.8963 345.5742 0001138 124.7140 235.4096 13.12484975268110
ONEWEB-0129             
1 47275U 20100T   26193.93092758  .00000040  00000+0  77129-4 0  9995
2 47275  87.8958 345.5394 0002912  97.7268 262.4191 13.12444075268055
ONEWEB-0130             
1 47276U 20100U   26193.88180318  .00000426  00000+0  11477-2 0  9990
2 47276  87.8958 345.5435 0001824  95.7663 264.3673 13.12442074268019
ONEWEB-0131             
1 47277U 20100V   26193.87841788  .00000332  00000+0  88814-3 0  9991
2 47277  87.8945 345.5612 0001794  99.1932 260.9399 13.12442017268054
ONEWEB-0132             
1 47278U 20100W   26193.90720216 -.00000373  00000+0 -10735-2 0  9991
2 47278  87.8959 345.5568 0001812  98.2503 261.8831 13.12442143267954
ONEWEB-0133             
1 47279U 20100X   26193.92400335 -.00000171  00000+0 -51016-3 0  9995
2 47279  87.8974 345.5320 0001807 100.0242 260.1091 13.12445035268116
ONEWEB-0134             
1 47280U 20100Y   26193.89365422 -.00000030  00000+0 -11921-3 0  9995
2 47280  87.8971 345.5357 0002022 101.4724 258.6632 13.12441223268089
ONEWEB-0135             
1 47281U 20100Z   26194.32227807  .00000312  00000+0  83074-3 0  9998
2 47281  87.8961 345.4695 0001955 105.0417 255.0928 13.12444392268164
